{
  "type": "FeatureCollection",
  "features": [
    {
      "type": "Feature",
      "id": "dorohusk",
      "properties": {
        "name:pl": "Punkt pomocy (Dorohusk)",
        "name:en": "Reception point (Dorohusk)",
        "name:uk": "ПУНКТ ПРИЙОМУ (Dorohusk)",
        "description": "Pałac Suchodolskich Gminny Ośrodek Kultury i Turystyki, ul. Parkowa 5, 22-175 Dorohusk – osiedle",
        "custom": "punkt recepcyjny"
      },
      "geometry": {
        "type": "Point",
        "coordinates": [
          23.80484955594276,
          51.16535155462104
        ]
      }
    },
    {
      "type": "Feature",
      "id": "dolhobyczow",
      "properties": {
        "name:pl": "Punkt pomocy (Dołhobyczów)",
        "name:en": "Reception point (Dołhobyczów)",
        "name:uk": "ПУНКТ ПРИЙОМУ (Dołhobyczów)",
        "description": "Przygraniczne Centrum Kultury i Rekreacji, ul. Spółdzielcza 8, 22 - 540 Dołhobyczów",
        "custom": "punkt recepcyjny"
      },
      "geometry": {
        "type": "Point",
        "coordinates": [
          24.03047761174245,
          50.58797836696357
        ]
      }
    },
    {
      "type": "Feature",
      "id": "horodlo",
      "properties": {
        "name:pl": "Punkt pomocy (Horodło)",
        "name:en": "Reception point (Horodło)",
        "name:uk": "ПУНКТ ПРИЙОМУ (Horodło)",
        "description": "Zespół Szkół w Horodle, ul. Piłsudskiego 58, 22 - 523 Horodło",
        "custom": "punkt recepcyjny"
      },
      "geometry": {
        "type": "Point",
        "coordinates": [
          24.039046169425202,
          50.892683065726324
        ]
      }
    },
    {
      "type": "Feature",
      "id": "lubycza-krolewska",
      "properties": {
        "name:pl": "Punkt pomocy (Lubycza Królewska)",
        "name:en": "Reception point (Lubycza Królewska)",
        "name:uk": "ПУНКТ ПРИЙОМУ (Lubycza Królewska)",
        "description": "Szkoła Podstawowa w Lubyczy Królewskiej (zaplecze hali sportowej), ul. Jana III Sobieskiego 5, 22 - 680 Lubycza Królewska",
        "custom": "punkt recepcyjny"
      },
      "geometry": {
        "type": "Point",
        "coordinates": [
          23.52104399824096,
          50.33941555568293
        ]
      }
    },
    {
      "type": "Feature",
      "id": "korczowa",
      "properties": {
        "name:pl": "Punkt pomocy (Korczowa)",
        "name:en": "Reception point (Korczowa)",
        "name:uk": "ПУНКТ ПРИЙОМУ (Korczowa)",
        "description": "Świetlica, Korczowa 155 37-552 Korczowa",
        "custom": "punkt recepcyjny"
      },
      "geometry": {
        "type": "Point",
        "coordinates": [
          23.079404627062928,
          49.956127625430305
        ]
      }
    },
    {
      "type": "Feature",
      "id": "medyka",
      "properties": {
        "name:pl": "Punkt pomocy (Medyka)",
        "name:en": "Reception point (Medyka)",
        "name:uk": "ПУНКТ ПРИЙОМУ (Medyka)",
        "description": "Hala sportowa - Medyka 285, 37-732 Medyka",
        "custom": "punkt recepcyjny"
      },
      "geometry": {
        "type": "Point",
        "coordinates": [
          22.931451698221746,
          49.80518541725776
        ]
      }
    },
    {
      "type": "Feature",
      "id": "krowica-sama",
      "properties": {
        "name:pl": "Punkt pomocy (Krowica Sama)",
        "name:en": "Reception point (Krowica Sama)",
        "name:uk": "ПУНКТ ПРИЙОМУ (Krowica Sama)",
        "description": "Szkoła Podstawowa w m. Krowica Sama 183, 37-625 Krowica Sama",
        "custom": "punkt recepcyjny"
      },
      "geometry": {
        "type": "Point",
        "coordinates": [
          23.232696184739975,
          50.10104818407489
        ]
      }
    },
    {
      "type": "Feature",
      "id": "ustrzyki-dolne",
      "properties": {
        "name:pl": "Punkt pomocy (Ustrzyki Dolne)",
        "name:en": "Reception point (Ustrzyki Dolne)",
        "name:uk": "ПУНКТ ПРИЙОМУ (Ustrzyki Dolne)",
        "description": "Była Szkoła Podstawowa w Łodynie,  Łodyna 41, 38-700 Ustrzyki Dolne",
        "custom": "punkt recepcyjny"
      },
      "geometry": {
        "type": "Point",
        "coordinates": [
          22.594869998209404,
          49.460197307039245
        ]
      }
    },
    {
      "type": "Feature",
      "id": "przemysl-pkp",
      "properties": {
        "name:pl": "Punkt pomocy (Przemyśl PKP)",
        "name:en": "Reception point (Przemyśl PKP)",
        "name:uk": "ПУНКТ ПРИЙОМУ (Przemyśl PKP)",
        "description": "Dworzec PKP w Przemyślu, Plac Legionów 1",
        "custom": "punkt recepcyjny"
      },
      "geometry": {
        "type": "Point",
        "coordinates": [
          22.7763991,
          49.783388
        ]
      }
    }
  ]
}
